ONEWEB-0560             
1 55145U 23004F   25301.49967456  .00000018  00000+0  12622-4 0  9995
2 55145  87.9219  21.4899 0002077 104.9171 255.2191 13.18686221139174
ONEWEB-0565             
1 55146U 23004G   25301.49307586  .00000091  00000+0  19914-3 0  9999
2 55146  87.9209  21.5419 0002247  92.5683 267.5707 13.18686116139163
ONEWEB-0567             
1 55147U 23004H   25301.48647713  .00000080  00000+0  17062-3 0  9998
2 55147  87.9216  21.5060 0002230  97.8620 262.2766 13.18686554139168
ONEWEB-0569             
1 55148U 23004J   25301.58059030 -.00000065  00000+0 -21394-3 0  9997
2 55148  87.9040   6.2351 0002800 105.3412 254.8027 13.13470109139770
ONEWEB-0570             
1 55149U 23004K   25301.47658071  .00000094  00000+0  20556-3 0  9995
2 55149  87.9217  21.5085 0001902  84.0094 276.1255 13.18686646139154
ONEWEB-0571             
1 55150U 23004L   25301.62173548  .00000040  00000+0  69376-4 0  9990
2 55150  87.9211  21.4816 0003056  93.3419 266.8063 13.18687335139189
ONEWEB-0572             
1 55151U 23004M   25301.30653514  .00000135  00000+0  31447-3 0  9994
2 55151  87.9127  51.9760 0001866  96.7356 263.3988 13.17649190136941
ONEWEB-0573             
1 55152U 23004N   25301.61514165 -.00000029  00000+0 -10558-3 0  9991
2 55152  87.9211  21.4898 0002444  85.0000 275.1411 13.18686277139178
